FLOCK 3P-85             
1 41983U 17008AM  18044.49702724  .00001960  00000-0  83867-4 0  9995
2 41983  97.4689 110.1948 0009852  75.8540 284.3809 15.23979324 55118
FLOCK 3P-79             
1 41984U 17008AN  18044.17061547  .00001164  00000-0  51152-4 0  9990
2 41984  97.4685 109.8636 0009590  78.0194 282.2117 15.23882521 55068
FLOCK 3P-86             
1 41985U 17008AP  18043.71265050  .00000987  00000-0  43845-4 0  9997
2 41985  97.4686 109.3980 0009554  78.9642 281.2669 15.23876249 54985
FLOCK 3P-36             
1 41986U 17008AQ  18044.83091173  .00001130  00000-0  49759-4 0  9996
2 41986  97.4667 110.4224 0009252  73.6589 286.5665 15.23897277 54647
FLOCK 3P-30             
1 41987U 17008AR  18044.42843469  .00001658  00000-0  71504-4 0  9993
2 41987  97.4667 110.0417 0009149  76.1742 284.0512 15.23932027 55055
FLOCK 3P-34             
1 41988U 17008AS  18044.17749638  .00001051  00000-0  46482-4 0  9993
2 41988  97.4663 109.7451 0009300  73.6519 286.5740 15.23890875 54545
FLOCK 3P-35             
1 41989U 17008AT  18044.83768807  .00001238  00000-0  54238-4 0  9991
2 41989  97.4660 110.3915 0009429  71.5387 288.6874 15.23887973 54645
FLOCK 3P-33             
1 41990U 17008AU  18043.71554445  .00001191  00000-0  52283-4 0  9996
2 41990  97.4666 109.2957 0009127  76.0285 284.1967 15.23899487 54476
LEMUR-2-SATCHMO         
1 41991U 17008AV  18044.15908077  .00000949  00000-0  43347-4 0  9991
2 41991  97.4651 109.4474 0009405  76.9016 283.3270 15.23011620 54526
LEMUR-2-MIA-GRACE       
1 41992U 17008AW  18043.70097192  .00001486  00000-0  65179-4 0  9993
2 41992  97.4657 109.1551 0009315  78.3242 281.9039 15.23519719 54465
LEMUR-2-SMITA-SHARAD    
1 41993U 17008AX  18044.13062926  .00001061  00000-0  47874-4 0  9990
2 41993  97.4651 109.4873 0009362  76.6136 283.6144 15.23189409 54527
LEMUR-2-SPIRE-MINIONS   
1 41994U 17008AY  18044.10489194  .00001389  00000-0  61217-4 0  9998
2 41994  97.4653 109.5231 0009333  76.4478 283.7798 15.23477565 54523
LEMUR-2-RDEATON         
1 41995U 17008AZ  18044.12158050  .00001043  00000-0  47005-4 0  9991
2 41995  97.4652 109.5043 0010507  87.5712 272.6727 15.23242576 55200
LEMUR-2-NOGUECORREIG    
1 41996U 17008BA  18044.15634305  .00001124  00000-0  50101-4 0  9998
2 41996  97.4661 109.6248 0010407  88.2441 271.9988 15.23477571 54435
LEMUR-2-JOBANPUTRA      
1 41997U 17008BB  18044.45856845  .00001491  00000-0  65194-4 0  9992
2 41997  97.4662 109.9892 0010385  87.1261 273.1164 15.23611004 54574
LEMUR-2-TACHIKOMA       
1 41998U 17008BC  18044.13240997  .00001052  00000-0  47518-4 0  9996
2 41998  97.4651 109.4866 0010422  87.9685 272.2745 15.23140919 54442
BGUSAT                  
1 41999U 17008BD  18043.89477357  .00001804  00000-0  77361-4 0  9995
2 41999  97.4667 109.5370 0010236  89.7247 270.5163 15.24006878 54494
DIDO-2                  
1 42000U 17008BE  18044.81341287  .00000959  00000-0  43853-4 0  9993
2 42000  97.4645 110.0987 0010420  86.5124 273.7305 15.22926306 54622
FLOCK 3P-49             
1 42001U 17008BF  18044.16258821  .00001275  00000-0  55716-4 0  9996
2 42001  97.4666 109.7752 0009912  89.4389 270.7984 15.23904341 55065
FLOCK 3P-67             
1 42002U 17008BG  18044.81482926  .00002337  00000-0  99105-4 0  9994
2 42002  97.4663 110.4262 0009801  86.7592 273.4767 15.24094941 55326
FLOCK 3P-68             
1 42003U 17008BH  18044.82554504  .00001716  00000-0  73945-4 0  9992
2 42003  97.4660 110.4055 0009992  85.2728 274.9650 15.23912399 54961
FLOCK 3P-41             
1 42004U 17008BJ  18044.15776155  .00000814  00000-0  36690-4 0  9991
2 42004  97.4662 109.7606 0009844  89.2680 270.9685 15.23862288 55050
FLOCK 3P-45             
1 42005U 17008BK  18043.69385709  .00002166  00000-0  92062-4 0  9998
2 42005  97.4666 109.3206 0009731  91.0847 269.1505 15.24100399 55159
FLOCK 3P-48             
1 42006U 17008BL  18044.16094221  .00001143  00000-0  50271-4 0  9998
2 42006  97.4667 109.7784 0009668  90.2430 269.9915 15.23894761 55003
FLOCK 3P-43             
1 42007U 17008BM  18043.63872327  .00000702  00000-0  32180-4 0  9990
2 42007  97.4667 109.2384 0009627  92.1848 268.0491 15.23737453 55142
FLOCK 3P-42             
1 42008U 17008BN  18044.81577823  .00001302  00000-0  56858-4 0  9990
2 42008  97.4659 110.4112 0009655  88.2976 271.9367 15.23901271 55243
FLOCK 3P-61             
1 42009U 17008BP  18043.76398896  .00001237  00000-0  54127-4 0  9999
2 42009  97.4663 109.3746 0009569  93.3122 266.9209 15.23930307 55132
FLOCK 3P-40             
1 42010U 17008BQ  18044.41446798  .00001110  00000-0  48844-4 0  9998
2 42010  97.4656 110.0098 0009507  92.0272 268.2054 15.23930024 54496
FLOCK 3P-16             
1 42011U 17008BR  18044.40347663  .00001761  00000-0  75864-4 0  9993
2 42011  97.4656 110.0277 0009174  92.3274 267.9013 15.23901564 54433
FLOCK 3P-14             
1 42012U 17008BS  18044.79595501  .00001621  00000-0  69958-4 0  9994
2 42012  97.4666 110.4456 0009389  93.3902 266.8410 15.23949628 55113
FLOCK 3P-53             
1 42013U 17008BT  18044.47250539  .00002275  00000-0  97141-4 0  9990
2 42013  97.4657 110.0703 0009200  92.2396 267.9895 15.23894909 55066
FLOCK 3P-54             
1 42014U 17008BU  18044.14733610  .00001320  00000-0  57555-4 0  9996
2 42014  97.4658 109.7602 0009142  94.3956 265.8326 15.23923451 55185
PEASSS                  
1 42015U 17008BV  18044.13269526  .00001033  00000-0  46044-4 0  9998
2 42015  97.4641 109.7385 0008302  95.3392 264.8792 15.23671188 55024
AL-FARABI 1             
1 42016U 17008BW  18044.81214545  .00001438  00000-0  62289-4 0  9993
2 42016  97.4645 110.5310 0008186  93.8450 266.3724 15.24006509 55252
NAYIF-1 (EO-88)         
1 42017U 17008BX  18044.21730472  .00001425  00000-0  61730-4 0  9996
2 42017  97.4645 109.9441 0008158  95.6681 264.5486 15.24025709 55185
FLOCK 3P-23             
1 42018U 17008BY  18044.40865397  .00001608  00000-0  69427-4 0  9997
2 42018  97.4653 109.8557 0010123  70.8979 289.3353 15.23935261 54024
FLOCK 3P-76             
1 42019U 17008BZ  18044.44150160  .00001463  00000-0  63527-4 0  9991
2 42019  97.4687 110.1260 0009950  75.7399 284.4942 15.23897947 55090
FLOCK 3P-69             
1 42020U 17008CA  18043.71760925  .00001252  00000-0  54783-4 0  9998
2 42020  97.4689 109.4078 0009808  77.0782 283.1550 15.23900067 53878
FLOCK 3P-84             
1 42021U 17008CB  18044.77835321  .00001170  00000-0  51359-4 0  9994
2 42021  97.4681 110.4194 0010138  73.5611 286.6739 15.23920045 55150
FLOCK 3P-59             
1 42022U 17008CC  18044.11810273  .00001973  00000-0  84285-4 0  9997
2 42022  97.4662 109.6721 0009555  75.9667 284.2632 15.24029252 54071
FLOCK 3P-32             
1 42023U 17008CD  18043.73237646  .00001170  00000-0  51388-4 0  9999
2 42023  97.4663 109.2725 0009557  74.4079 285.8212 15.23907008 55150
FLOCK 3P-71             
1 42024U 17008CE  18043.94665009  .00002319  00000-0  98846-4 0  9997
2 42024  97.4687 109.5664 0009969  77.8529 282.3825 15.23922029 54056
FLOCK 3P-77             
1 42025U 17008CF  18044.83671238  .00001534  00000-0  66418-4 0  9996
2 42025  97.4683 110.5043 0009852  75.0276 285.2051 15.23905883 55161
FLOCK 3P-80             
1 42026U 17008CG  18044.42195753  .00002829  00000-0  11957-3 0  9990
2 42026  97.4686 110.1338 0009485  76.8518 283.3777 15.24028009 53246
FLOCK 3P-66             
1 42027U 17008CH  18044.36530153  .00001380  00000-0  60051-4 0  9992
2 42027  97.4666 109.9633 0009961  86.7133 273.5243 15.23917021 55208
FLOCK 3P-65             
1 42028U 17008CJ  18044.16646662  .00001215  00000-0  53250-4 0  9994
2 42028  97.4665 109.7692 0009864  87.5464 272.6902 15.23909574 55070
FLOCK 3P-50             
1 42029U 17008CK  18044.16327925  .00001201  00000-0  52697-4 0  9992
2 42029  97.4668 109.7841 0009695  89.2337 271.0011 15.23879282 54390
FLOCK 3P-52             
1 42030U 17008CL  18043.70530253  .00001343  00000-0  58504-4 0  9993
2 42030  97.4666 109.3083 0009771  90.2089 270.0267 15.23922912 55094
FLOCK 3P-46             
1 42031U 17008CM  18044.42277994  .00001122  00000-0  49385-4 0  9996
2 42031  97.4660 110.0229 0009713  88.9781 271.2569 15.23904134 55239
FLOCK 3P-47             
1 42032U 17008CN  18044.16185310  .00001336  00000-0  58261-4 0  9998
2 42032  97.4660 109.7573 0009657  90.0322 270.2022 15.23908786 55048
FLOCK 3P-44             
1 42033U 17008CP  18044.81724097  .00002210  00000-0  94858-4 0  9996
2 42033  97.4665 110.4262 0009769  90.3469 269.8887 15.23744021 53891
FLOCK 3P-64             
1 42034U 17008CQ  18043.69661001  .00001216  00000-0  53249-4 0  9991
2 42034  97.4660 109.3000 0009564  93.2578 266.9753 15.23922290 55146
FLOCK 3P-63             
1 42035U 17008CR  18044.48251957  .00001409  00000-0  61262-4 0  9993
2 42035  97.4657 110.0802 0009543  90.7495 269.4836 15.23915196 53234
FLOCK 3P-62             
1 42036U 17008CS  18044.12457958  .00002087  00000-0  88600-4 0  9992
2 42036  97.4662 109.8011 0009592  93.2793 266.9542 15.24179562 54385
FLOCK 3P-38             
1 42037U 17008CT  18044.48100923  .00001317  00000-0  57456-4 0  9999
2 42037  97.4659 110.0860 0009282  91.6809 268.5491 15.23920412 55215
FLOCK 3P-39             
1 42038U 17008CU  18044.15060406  .00001401  00000-0  60936-4 0  9996
2 42038  97.4655 109.7444 0009497  92.7180 267.5144 15.23910753 55117
FLOCK 3P-15             
1 42039U 17008CV  18044.81192579  .00001114  00000-0  49037-4 0  9997
2 42039  97.4656 110.4063 0009398  90.4743 269.7571 15.23928913 54490
FLOCK 3P-13             
1 42040U 17008CW  18044.15157790  .00001980  00000-0  85162-4 0  9992
2 42040  97.4665 109.7707 0009304  93.3892 266.8409 15.23805737 54386
FLOCK 3P-55             
1 42041U 17008CX  18044.12855409  .00001345  00000-0  58642-4 0  9990
2 42041  97.4660 109.7935 0009127  96.7441 263.4835 15.23902576 55224
